line1,line2,validFromUtcTime
1 00000U 00000E   26001.00000000  .00000000  00000-0  27772-4 0    01,2 00000  88.9257 150.3354 0010011 269.9917  89.8840 13.55304346    09,2026-01-01T00:00:00Z
1 00000U 00000E   26002.00000000  .00000000  00000-0  27772-4 0    02,2 00000  88.9257 150.2261 0010011 267.0813 288.9781 13.55304384    07,2026-01-02T00:00:00Z
